STARLINK-37048          
1 68155U 26049P   26092.83572551  .00156079  00000+0  79760-3 0  9990
2 68155  97.2842 113.3381 0001409 117.5483 242.5929 15.80911425  3228
STARLINK-36313          
1 68156U 26049Q   26092.83647967  .00171744  00000+0  87628-3 0  9993
2 68156  97.2846 113.3364 0001332 100.9335 259.2083 15.80904330  3224
STARLINK-37064          
1 68157U 26049R   26092.83797976  .00220387  00000+0  11164-2 0  9999
2 68157  97.2846 113.3353 0001263  75.7753 284.3656 15.80935655  3228
STARLINK-37069          
1 68158U 26049S   26092.79516484  .00156795  00000+0  10297-2 0  9995
2 68158  97.2852 113.2401 0001362  78.9251 281.2168 15.75261129  3212
STARLINK-37053          
1 68159U 26049T   26092.83360882 -.00792257  00000+0 -47196-2 0  9999
2 68159  97.2840 113.3401 0000779 104.5346 255.6008 15.79899945  3229
STARLINK-36306          
1 68160U 26049U   26092.79128000  .00373842  00000+0  23830-2 0  9992
2 68160  97.2849 113.2456 0001170 103.7166 256.4230 15.75345798  3219
STARLINK-37057          
1 68161U 26049V   26092.83497484  .00097280  00000+0  50125-3 0  9990
2 68161  97.2843 113.3389 0001592 106.0830 254.0613 15.80890461  3220
STARLINK-37013          
1 68162U 26049W   26092.82973906  .00291370  00000+0  14674-2 0  9992
2 68162  97.2847 113.3453 0001160  84.9697 275.1703 15.80878708  3227
STARLINK-36958          
1 68163U 26049X   26092.83335647 -.00061295  00000+0 -41307-3 0  9995
2 68163  97.2839 113.3406 0001194  81.7587 272.7711 15.75187954  4501
STARLINK-37002          
1 68164U 26049Y   26092.83196791  .00125379  00000+0  64339-3 0  9993
2 68164  97.2837 113.3424 0001794 123.5720 236.5720 15.80902074  3220
STARLINK-36971          
1 68165U 26049Z   26092.83335647 -.00223364  00000+0 -15288-2 0  9992
2 68165  97.2848 113.3262 0001379 115.7476 202.7730 15.75298548  4509
STARLINK-36273          
1 68166U 26049AA  26092.79057243  .00100484  00000+0  66477-3 0  9993
2 68166  97.2849 113.2463 0001198  79.2084 280.9316 15.75255646  3218
