CCSDS_OMM_VERS = 2.0
CREATION_DATE  = 
ORIGINATOR     = 

OBJECT_NAME    = STARLINK-37048
OBJECT_ID      = 2026-049P
CENTER_NAME    = EARTH
REF_FRAME      = TEME
TIME_SYSTEM    = UTC
MEAN_ELEMENT_THEORY = SGP/SGP4

EPOCH          = 2026-04-02T20:03:26.684064
MEAN_MOTION    = 15.80911425
ECCENTRICITY   = .0001409
INCLINATION    = 97.2842
RA_OF_ASC_NODE = 113.3381
ARG_OF_PERICENTER = 117.5483
MEAN_ANOMALY   = 242.5929

EPHEMERIS_TYPE = 0
CLASSIFICATION_TYPE = U
NORAD_CAT_ID   = 68155
ELEMENT_SET_NO = 999
REV_AT_EPOCH   = 322
BSTAR          = .7976E-3
MEAN_MOTION_DOT = .156079E-2
MEAN_MOTION_DDOT = 0

CCSDS_OMM_VERS = 2.0
CREATION_DATE  = 
ORIGINATOR     = 

OBJECT_NAME    = STARLINK-36313
OBJECT_ID      = 2026-049Q
CENTER_NAME    = EARTH
REF_FRAME      = TEME
TIME_SYSTEM    = UTC
MEAN_ELEMENT_THEORY = SGP/SGP4

EPOCH          = 2026-04-02T20:04:31.843488
MEAN_MOTION    = 15.80904330
ECCENTRICITY   = .0001332
INCLINATION    = 97.2846
RA_OF_ASC_NODE = 113.3364
ARG_OF_PERICENTER = 100.9335
MEAN_ANOMALY   = 259.2083

EPHEMERIS_TYPE = 0
CLASSIFICATION_TYPE = U
NORAD_CAT_ID   = 68156
ELEMENT_SET_NO = 999
REV_AT_EPOCH   = 322
BSTAR          = .87628E-3
MEAN_MOTION_DOT = .171744E-2
MEAN_MOTION_DDOT = 0

CCSDS_OMM_VERS = 2.0
CREATION_DATE  = 
ORIGINATOR     = 

OBJECT_NAME    = STARLINK-37064
OBJECT_ID      = 2026-049R
CENTER_NAME    = EARTH
REF_FRAME      = TEME
TIME_SYSTEM    = UTC
MEAN_ELEMENT_THEORY = SGP/SGP4

EPOCH          = 2026-04-02T20:06:41.451264
MEAN_MOTION    = 15.80935655
ECCENTRICITY   = .0001263
INCLINATION    = 97.2846
RA_OF_ASC_NODE = 113.3353
ARG_OF_PERICENTER = 75.7753
MEAN_ANOMALY   = 284.3656

EPHEMERIS_TYPE = 0
CLASSIFICATION_TYPE = U
NORAD_CAT_ID   = 68157
ELEMENT_SET_NO = 999
REV_AT_EPOCH   = 322
BSTAR          = .11164E-2
MEAN_MOTION_DOT = .220387E-2
MEAN_MOTION_DDOT = 0

CCSDS_OMM_VERS = 2.0
CREATION_DATE  = 
ORIGINATOR     = 

OBJECT_NAME    = STARLINK-37069
OBJECT_ID      = 2026-049S
CENTER_NAME    = EARTH
REF_FRAME      = TEME
TIME_SYSTEM    = UTC
MEAN_ELEMENT_THEORY = SGP/SGP4

EPOCH          = 2026-04-02T19:05:02.242176
MEAN_MOTION    = 15.75261129
ECCENTRICITY   = .0001362
INCLINATION    = 97.2852
RA_OF_ASC_NODE = 113.2401
ARG_OF_PERICENTER = 78.9251
MEAN_ANOMALY   = 281.2168

EPHEMERIS_TYPE = 0
CLASSIFICATION_TYPE = U
NORAD_CAT_ID   = 68158
ELEMENT_SET_NO = 999
REV_AT_EPOCH   = 321
BSTAR          = .10297E-2
MEAN_MOTION_DOT = .156795E-2
MEAN_MOTION_DDOT = 0

CCSDS_OMM_VERS = 2.0
CREATION_DATE  = 
ORIGINATOR     = 

OBJECT_NAME    = STARLINK-37053
OBJECT_ID      = 2026-049T
CENTER_NAME    = EARTH
REF_FRAME      = TEME
TIME_SYSTEM    = UTC
MEAN_ELEMENT_THEORY = SGP/SGP4

EPOCH          = 2026-04-02T20:00:23.802048
MEAN_MOTION    = 15.79899945
ECCENTRICITY   = .0000779
INCLINATION    = 97.2840
RA_OF_ASC_NODE = 113.3401
ARG_OF_PERICENTER = 104.5346
MEAN_ANOMALY   = 255.6008

EPHEMERIS_TYPE = 0
CLASSIFICATION_TYPE = U
NORAD_CAT_ID   = 68159
ELEMENT_SET_NO = 999
REV_AT_EPOCH   = 322
BSTAR          = -.47196E-2
MEAN_MOTION_DOT = -.792257E-2
MEAN_MOTION_DDOT = 0

CCSDS_OMM_VERS = 2.0
CREATION_DATE  = 
ORIGINATOR     = 

OBJECT_NAME    = STARLINK-36306
OBJECT_ID      = 2026-049U
CENTER_NAME    = EARTH
REF_FRAME      = TEME
TIME_SYSTEM    = UTC
MEAN_ELEMENT_THEORY = SGP/SGP4

EPOCH          = 2026-04-02T18:59:26.592000
MEAN_MOTION    = 15.75345798
ECCENTRICITY   = .000117
INCLINATION    = 97.2849
RA_OF_ASC_NODE = 113.2456
ARG_OF_PERICENTER = 103.7166
MEAN_ANOMALY   = 256.4230

EPHEMERIS_TYPE = 0
CLASSIFICATION_TYPE = U
NORAD_CAT_ID   = 68160
ELEMENT_SET_NO = 999
REV_AT_EPOCH   = 321
BSTAR          = .2383E-2
MEAN_MOTION_DOT = .373842E-2
MEAN_MOTION_DDOT = 0

CCSDS_OMM_VERS = 2.0
CREATION_DATE  = 
ORIGINATOR     = 

OBJECT_NAME    = STARLINK-37057
OBJECT_ID      = 2026-049V
CENTER_NAME    = EARTH
REF_FRAME      = TEME
TIME_SYSTEM    = UTC
MEAN_ELEMENT_THEORY = SGP/SGP4

EPOCH          = 2026-04-02T20:02:21.826176
MEAN_MOTION    = 15.80890461
ECCENTRICITY   = .0001592
INCLINATION    = 97.2843
RA_OF_ASC_NODE = 113.3389
ARG_OF_PERICENTER = 106.0830
MEAN_ANOMALY   = 254.0613

EPHEMERIS_TYPE = 0
CLASSIFICATION_TYPE = U
NORAD_CAT_ID   = 68161
ELEMENT_SET_NO = 999
REV_AT_EPOCH   = 322
BSTAR          = .50125E-3
MEAN_MOTION_DOT = .9728E-3
MEAN_MOTION_DDOT = 0

CCSDS_OMM_VERS = 2.0
CREATION_DATE  = 
ORIGINATOR     = 

OBJECT_NAME    = STARLINK-37013
OBJECT_ID      = 2026-049W
CENTER_NAME    = EARTH
REF_FRAME      = TEME
TIME_SYSTEM    = UTC
MEAN_ELEMENT_THEORY = SGP/SGP4

EPOCH          = 2026-04-02T19:54:49.454784
MEAN_MOTION    = 15.80878708
ECCENTRICITY   = .000116
INCLINATION    = 97.2847
RA_OF_ASC_NODE = 113.3453
ARG_OF_PERICENTER = 84.9697
MEAN_ANOMALY   = 275.1703

EPHEMERIS_TYPE = 0
CLASSIFICATION_TYPE = U
NORAD_CAT_ID   = 68162
ELEMENT_SET_NO = 999
REV_AT_EPOCH   = 322
BSTAR          = .14674E-2
MEAN_MOTION_DOT = .29137E-2
MEAN_MOTION_DDOT = 0

CCSDS_OMM_VERS = 2.0
CREATION_DATE  = 
ORIGINATOR     = 

OBJECT_NAME    = STARLINK-36958
OBJECT_ID      = 2026-049X
CENTER_NAME    = EARTH
REF_FRAME      = TEME
TIME_SYSTEM    = UTC
MEAN_ELEMENT_THEORY = SGP/SGP4

EPOCH          = 2026-04-02T20:00:01.999008
MEAN_MOTION    = 15.75187954
ECCENTRICITY   = .0001194
INCLINATION    = 97.2839
RA_OF_ASC_NODE = 113.3406
ARG_OF_PERICENTER = 81.7587
MEAN_ANOMALY   = 272.7711

EPHEMERIS_TYPE = 0
CLASSIFICATION_TYPE = U
NORAD_CAT_ID   = 68163
ELEMENT_SET_NO = 999
REV_AT_EPOCH   = 450
BSTAR          = -.41307E-3
MEAN_MOTION_DOT = -.61295E-3
MEAN_MOTION_DDOT = 0

CCSDS_OMM_VERS = 2.0
CREATION_DATE  = 
ORIGINATOR     = 

OBJECT_NAME    = STARLINK-37002
OBJECT_ID      = 2026-049Y
CENTER_NAME    = EARTH
REF_FRAME      = TEME
TIME_SYSTEM    = UTC
MEAN_ELEMENT_THEORY = SGP/SGP4

EPOCH          = 2026-04-02T19:58:02.027424
MEAN_MOTION    = 15.80902074
ECCENTRICITY   = .0001794
INCLINATION    = 97.2837
RA_OF_ASC_NODE = 113.3424
ARG_OF_PERICENTER = 123.5720
MEAN_ANOMALY   = 236.5720

EPHEMERIS_TYPE = 0
CLASSIFICATION_TYPE = U
NORAD_CAT_ID   = 68164
ELEMENT_SET_NO = 999
REV_AT_EPOCH   = 322
BSTAR          = .64339E-3
MEAN_MOTION_DOT = .125379E-2
MEAN_MOTION_DDOT = 0

CCSDS_OMM_VERS = 2.0
CREATION_DATE  = 
ORIGINATOR     = 

OBJECT_NAME    = STARLINK-36971
OBJECT_ID      = 2026-049Z
CENTER_NAME    = EARTH
REF_FRAME      = TEME
TIME_SYSTEM    = UTC
MEAN_ELEMENT_THEORY = SGP/SGP4

EPOCH          = 2026-04-02T20:00:01.999008
MEAN_MOTION    = 15.75298548
ECCENTRICITY   = .0001379
INCLINATION    = 97.2848
RA_OF_ASC_NODE = 113.3262
ARG_OF_PERICENTER = 115.7476
MEAN_ANOMALY   = 202.7730

EPHEMERIS_TYPE = 0
CLASSIFICATION_TYPE = U
NORAD_CAT_ID   = 68165
ELEMENT_SET_NO = 999
REV_AT_EPOCH   = 450
BSTAR          = -.15288E-2
MEAN_MOTION_DOT = -.223364E-2
MEAN_MOTION_DDOT = 0

CCSDS_OMM_VERS = 2.0
CREATION_DATE  = 
ORIGINATOR     = 

OBJECT_NAME    = STARLINK-36273
OBJECT_ID      = 2026-049AA
CENTER_NAME    = EARTH
REF_FRAME      = TEME
TIME_SYSTEM    = UTC
MEAN_ELEMENT_THEORY = SGP/SGP4

EPOCH          = 2026-04-02T18:58:25.457952
MEAN_MOTION    = 15.75255646
ECCENTRICITY   = .0001198
INCLINATION    = 97.2849
RA_OF_ASC_NODE = 113.2463
ARG_OF_PERICENTER = 79.2084
MEAN_ANOMALY   = 280.9316

EPHEMERIS_TYPE = 0
CLASSIFICATION_TYPE = U
NORAD_CAT_ID   = 68166
ELEMENT_SET_NO = 999
REV_AT_EPOCH   = 321
BSTAR          = .66477E-3
MEAN_MOTION_DOT = .100484E-2
MEAN_MOTION_DDOT = 0

